ATLAS CENTAUR 2         
1 00694U 63047A   26055.25457351  .00001299  00000+0  14571-3 0  9990
2 00694  30.3554 270.7268 0548052 321.8836  34.4181 14.12024494129721
THOR AGENA D R/B        
1 00733U 64002A   26054.77676933  .00000227  00000+0  98203-4 0  9996
2 00733  99.1230  67.3562 0032021 299.8984  59.9019 14.34010874236304
SL-3 R/B                
1 00877U 64053B   26055.27874554  .00000372  00000+0  96131-4 0  9995
2 00877  65.0783  10.5526 0079164 296.4784  62.8211 14.61353056264836
SL-8 R/B                
1 02802U 67045B   26055.28816777  .00000481  00000+0  14047-3 0  9999
2 02802  74.0126  13.1144 0063644  22.6210 337.7729 14.45607271 87082
SL-8 R/B                
1 03230U 68040B   26055.19938781  .00004134  00000+0  30701-3 0  9995
2 03230  74.0333 341.2550 0024537 169.4833 190.6874 15.03149778 87987
OAO 2                   
1 03597U 68110A   26055.05452045  .00000234  00000+0  68133-4 0  9996
2 03597  34.9947 341.3513 0004852  89.3891 270.7356 14.47298265 17128
ISIS 1                  
1 03669U 69009A   26055.26658084  .00000178  00000+0  11010-3 0  9996
2 03669  88.4554 156.7713 1707814 116.2433 262.3983 11.30409238347017
SERT 2                  
1 04327U 70009A   26055.30795713  .00000039  00000+0  10980-3 0  9997
2 04327  99.2741 359.1352 0004517 189.7667 286.6639 13.58728626778076
SL-3 R/B                
1 05118U 71028B   26055.25447451  .00036552  00000+0  45001-3 0  9996
2 05118  81.2336  68.6105 0015383 340.9259  19.1415 15.59907477986578
ASTEX 1                 
1 05560U 71089A   26055.30338850  .00000559  00000+0  14215-3 0  9993
2 05560  92.7139 147.4300 0017489 125.5017 234.7824 14.50752936860363
SL-8 R/B                
1 05730U 71119B   26054.80912492  .00015844  00000+0  82170-3 0  9998
2 05730  73.8867 201.6543 0551468 171.1645 189.9733 14.37400483653492
OAO 3 (COPERNICUS)      
1 06153U 72065A   26055.20777046  .00000373  00000+0  80992-4 0  9990
2 06153  35.0068  14.1250 0006065  46.9645  79.2160 14.59984921844220
